IRIDIUM 57              
1 25273U 98019B   24364.33253495  .00000888  00000+0  30113-3 0  9993
2 25273  86.3968 216.3581 0001922  86.0861 274.0556 14.35657937400621
IRIDIUM 63              
1 25286U 98021B   24363.71926593  .00001337  00000+0  45125-3 0  9996
2 25286  86.4007 153.6069 0002151  92.2449 267.8994 14.36276576399642
IRIDIUM 69              
1 25319U 98026A   24364.32081030  .00001397  00000+0  43229-3 0  9993
2 25319  86.4003 167.1393 0001697 168.4824 191.6415 14.40619297398841
IRIDIUM 71              
1 25320U 98026B   24363.72708845  .00001393  00000+0  42876-3 0  9991
2 25320  86.4001 162.1176 0000714 359.7272   0.3927 14.40858397399296
IRIDIUM 73              
1 25344U 98032C   24363.71850043  .00001969  00000+0  49023-3 0  9991
2 25344  86.4428 119.2195 0001806 111.4247 248.7151 14.51285011406135
IRIDIUM 82              
1 25467U 98051A   24363.77088320  .00034295  00000+0  13289-2 0  9997
2 25467  86.3724 192.7462 0103527 218.8716 140.5053 15.21060213397950
